EUTELSAT 139 WEST A     
1 28187U 04008A   26025.12140834 -.00000094  00000+0  00000+0 0  9998
2 28187   5.4650  73.7505 0003407 150.0036 188.7869  1.00841804 79913
EUTELSAT 174A           
1 28924U 05052A   26024.89340191  .00000021  00000+0  00000+0 0  9997
2 28924   3.8539  78.3320 0006454 226.6489 314.8094  1.00270181 50895
EUTELSAT 33F            
1 29270U 06032A   26025.15078852  .00000169  00000+0  00000+0 0  9996
2 29270   1.2909  83.9615 0003603 220.3159 267.5257  1.00270154 45877
EUTELSAT HOTBIRD 13C    
1 33459U 08065A   26025.13432175 -.00000270  00000+0  00000+0 0  9992
2 33459   2.5813  80.9336 0003635 230.4401 171.1159  1.00271818 45917
EUTELSAT 36B            
1 36101U 09065A   26025.06919597  .00000127  00000+0  00000+0 0  9990
2 36101   0.1285  71.0555 0005989 235.9079 252.8016  1.00272004 59271
EUTELSAT KA-SAT 9A      
1 37258U 10069A   26025.04836322  .00000076  00000+0  00000+0 0  9995
2 37258   0.0527 339.8213 0001991 189.1087 341.8121  1.00273288 42573
EUTELSAT 7 WEST A       
1 37816U 11051A   26025.14281514 -.00000046  00000+0  00000+0 0  9993
2 37816   0.0697 333.3214 0004003 267.3702 287.8522  1.00270582 52446
EUTELSAT 16A            
1 37836U 11057A   26025.04836322  .00000118  00000+0  00000+0 0  9992
2 37836   0.0561  16.8572 0005217 289.2003 211.6818  1.00272385  5896
